<?xml version="1.0" encoding="UTF-8"?>
<kml xmlns="http://www.opengis.net/kml/2.2">
  <Document>
    <name>Prithvi 500-Chip Locations</name>
    <Placemark>
      <name>chip_010_063</name>
      <Point>
        <coordinates>-122.175088,48.512726,0</coordinates>
      </Point>
    </Placemark>
    <Placemark>
      <name>chip_030_076</name>
      <Point>
        <coordinates>-120.583151,47.546052,0</coordinates>
      </Point>
    </Placemark>
    <Placemark>
      <name>chip_032_111</name>
      <Point>
        <coordinates>-117.517990,47.939696,0</coordinates>
      </Point>
    </Placemark>
    <Placemark>
      <name>chip_032_183</name>
      <Point>
        <coordinates>-111.170737,48.783033,0</coordinates>
      </Point>
    </Placemark>
    <Placemark>
      <name>chip_036_147</name>
      <Point>
        <coordinates>-114.296322,48.157534,0</coordinates>
      </Point>
    </Placemark>
    <Placemark>
      <name>chip_037_102</name>
      <Point>
        <coordinates>-118.195967,47.518409,0</coordinates>
      </Point>
    </Placemark>
    <Placemark>
      <name>chip_038_107</name>
      <Point>
        <coordinates>-117.744164,47.528888,0</coordinates>
      </Point>
    </Placemark>
    <Placemark>
      <name>chip_039_108</name>
      <Point>
        <coordinates>-117.637776,47.483399,0</coordinates>
      </Point>
    </Placemark>
    <Placemark>
      <name>chip_039_111</name>
      <Point>
        <coordinates>-117.378668,47.524349,0</coordinates>
      </Point>
    </Placemark>
    <Placemark>
      <name>chip_042_092</name>
      <Point>
        <coordinates>-118.950735,47.079968,0</coordinates>
      </Point>
    </Placemark>
    <Placemark>
      <name>chip_047_106</name>
      <Point>
        <coordinates>-117.650313,46.982320,0</coordinates>
      </Point>
    </Placemark>
    <Placemark>
      <name>chip_051_235</name>
      <Point>
        <coordinates>-106.309582,48.057713,0</coordinates>
      </Point>
    </Placemark>
    <Placemark>
      <name>chip_053_176</name>
      <Point>
        <coordinates>-111.487141,47.450787,0</coordinates>
      </Point>
    </Placemark>
    <Placemark>
      <name>chip_054_264</name>
      <Point>
        <coordinates>-103.703808,48.042949,0</coordinates>
      </Point>
    </Placemark>
    <Placemark>
      <name>chip_055_200</name>
      <Point>
        <coordinates>-109.357731,47.551242,0</coordinates>
      </Point>
    </Placemark>
    <Placemark>
      <name>chip_055_202</name>
      <Point>
        <coordinates>-109.182047,47.568178,0</coordinates>
      </Point>
    </Placemark>
    <Placemark>
      <name>chip_057_118</name>
      <Point>
        <coordinates>-116.431876,46.550217,0</coordinates>
      </Point>
    </Placemark>
    <Placemark>
      <name>chip_058_191</name>
      <Point>
        <coordinates>-110.107849,47.291889,0</coordinates>
      </Point>
    </Placemark>
    <Placemark>
      <name>chip_059_190</name>
      <Point>
        <coordinates>-110.182075,47.222769,0</coordinates>
      </Point>
    </Placemark>
    <Placemark>
      <name>chip_060_083</name>
      <Point>
        <coordinates>-119.334194,45.889238,0</coordinates>
      </Point>
    </Placemark>
    <Placemark>
      <name>chip_060_117</name>
      <Point>
        <coordinates>-116.461223,46.359596,0</coordinates>
      </Point>
    </Placemark>
    <Placemark>
      <name>chip_060_118</name>
      <Point>
        <coordinates>-116.376119,46.372518,0</coordinates>
      </Point>
    </Placemark>
    <Placemark>
      <name>chip_063_116</name>
      <Point>
        <coordinates>-116.490402,46.169075,0</coordinates>
      </Point>
    </Placemark>
    <Placemark>
      <name>chip_064_067</name>
      <Point>
        <coordinates>-120.583427,45.413511,0</coordinates>
      </Point>
    </Placemark>
    <Placemark>
      <name>chip_064_120</name>
      <Point>
        <coordinates>-116.132513,46.161272,0</coordinates>
      </Point>
    </Placemark>
    <Placemark>
      <name>chip_064_352</name>
      <Point>
        <coordinates>-95.832068,47.646491,0</coordinates>
      </Point>
    </Placemark>
    <Placemark>
      <name>chip_064_354</name>
      <Point>
        <coordinates>-95.654421,47.646162,0</coordinates>
      </Point>
    </Placemark>
    <Placemark>
      <name>chip_065_348</name>
      <Point>
        <coordinates>-96.187188,47.585613,0</coordinates>
      </Point>
    </Placemark>
    <Placemark>
      <name>chip_066_347</name>
      <Point>
        <coordinates>-96.275671,47.524624,0</coordinates>
      </Point>
    </Placemark>
    <Placemark>
      <name>chip_067_282</name>
      <Point>
        <coordinates>-102.024736,47.332747,0</coordinates>
      </Point>
    </Placemark>
    <Placemark>
      <name>chip_069_353</name>
      <Point>
        <coordinates>-95.744439,47.342217,0</coordinates>
      </Point>
    </Placemark>
    <Placemark>
      <name>chip_071_257</name>
      <Point>
        <coordinates>-104.196191,46.976829,0</coordinates>
      </Point>
    </Placemark>
    <Placemark>
      <name>chip_074_351</name>
      <Point>
        <coordinates>-95.921624,47.038606,0</coordinates>
      </Point>
    </Placemark>
    <Placemark>
      <name>chip_075_347</name>
      <Point>
        <coordinates>-96.273375,46.977628,0</coordinates>
      </Point>
    </Placemark>
    <Placemark>
      <name>chip_075_350</name>
      <Point>
        <coordinates>-96.009616,46.977899,0</coordinates>
      </Point>
    </Placemark>
    <Placemark>
      <name>chip_079_220</name>
      <Point>
        <coordinates>-107.342856,46.263752,0</coordinates>
      </Point>
    </Placemark>
    <Placemark>
      <name>chip_080_231</name>
      <Point>
        <coordinates>-106.382362,46.279574,0</coordinates>
      </Point>
    </Placemark>
    <Placemark>
      <name>chip_081_176</name>
      <Point>
        <coordinates>-111.094936,45.774355,0</coordinates>
      </Point>
    </Placemark>
    <Placemark>
      <name>chip_081_345</name>
      <Point>
        <coordinates>-96.446733,46.613047,0</coordinates>
      </Point>
    </Placemark>
    <Placemark>
      <name>chip_082_339</name>
      <Point>
        <coordinates>-96.970417,46.549688,0</coordinates>
      </Point>
    </Placemark>
    <Placemark>
      <name>chip_083_175</name>
      <Point>
        <coordinates>-111.152760,45.645303,0</coordinates>
      </Point>
    </Placemark>
    <Placemark>
      <name>chip_083_208</name>
      <Point>
        <coordinates>-108.332748,45.933089,0</coordinates>
      </Point>
    </Placemark>
    <Placemark>
      <name>chip_084_207</name>
      <Point>
        <coordinates>-108.407285,45.865217,0</coordinates>
      </Point>
    </Placemark>
    <Placemark>
      <name>chip_085_592</name>
      <Point>
        <coordinates>-75.263446,44.768858,0</coordinates>
      </Point>
    </Placemark>
    <Placemark>
      <name>chip_086_203</name>
      <Point>
        <coordinates>-108.726911,45.713341,0</coordinates>
      </Point>
    </Placemark>
    <Placemark>
      <name>chip_087_268</name>
      <Point>
        <coordinates>-103.126396,46.063493,0</coordinates>
      </Point>
    </Placemark>
    <Placemark>
      <name>chip_087_335</name>
      <Point>
        <coordinates>-97.313745,46.243729,0</coordinates>
      </Point>
    </Placemark>
    <Placemark>
      <name>chip_089_360</name>
      <Point>
        <coordinates>-95.141559,46.126197,0</coordinates>
      </Point>
    </Placemark>
    <Placemark>
      <name>chip_091_253</name>
      <Point>
        <coordinates>-104.391433,45.748133,0</coordinates>
      </Point>
    </Placemark>
    <Placemark>
      <name>chip_091_324</name>
      <Point>
        <coordinates>-98.261623,45.988980,0</coordinates>
      </Point>
    </Placemark>
    <Placemark>
      <name>chip_091_336</name>
      <Point>
        <coordinates>-97.222333,46.002297,0</coordinates>
      </Point>
    </Placemark>
    <Placemark>
      <name>chip_092_214</name>
      <Point>
        <coordinates>-107.721625,45.438816,0</coordinates>
      </Point>
    </Placemark>
    <Placemark>
      <name>chip_092_320</name>
      <Point>
        <coordinates>-98.605571,45.922263,0</coordinates>
      </Point>
    </Placemark>
    <Placemark>
      <name>chip_092_322</name>
      <Point>
        <coordinates>-98.432575,45.925472,0</coordinates>
      </Point>
    </Placemark>
    <Placemark>
      <name>chip_093_213</name>
      <Point>
        <coordinates>-107.796229,45.371369,0</coordinates>
      </Point>
    </Placemark>
    <Placemark>
      <name>chip_093_331</name>
      <Point>
        <coordinates>-97.652408,45.876665,0</coordinates>
      </Point>
    </Placemark>
    <Placemark>
      <name>chip_093_355</name>
      <Point>
        <coordinates>-95.577063,45.886061,0</coordinates>
      </Point>
    </Placemark>
    <Placemark>
      <name>chip_094_329</name>
      <Point>
        <coordinates>-97.823651,45.813943,0</coordinates>
      </Point>
    </Placemark>
    <Placemark>
      <name>chip_095_323</name>
      <Point>
        <coordinates>-98.339681,45.745497,0</coordinates>
      </Point>
    </Placemark>
    <Placemark>
      <name>chip_097_316</name>
      <Point>
        <coordinates>-98.938137,45.612803,0</coordinates>
      </Point>
    </Placemark>
    <Placemark>
      <name>chip_097_328</name>
      <Point>
        <coordinates>-97.904824,45.631295,0</coordinates>
      </Point>
    </Placemark>
    <Placemark>
      <name>chip_097_356</name>
      <Point>
        <coordinates>-95.492432,45.643746,0</coordinates>
      </Point>
    </Placemark>
    <Placemark>
      <name>chip_099_310</name>
      <Point>
        <coordinates>-99.448300,45.479741,0</coordinates>
      </Point>
    </Placemark>
    <Placemark>
      <name>chip_100_341</name>
      <Point>
        <coordinates>-96.782773,45.461014,0</coordinates>
      </Point>
    </Placemark>
    <Placemark>
      <name>chip_101_342</name>
      <Point>
        <coordinates>-96.696216,45.401033,0</coordinates>
      </Point>
    </Placemark>
    <Placemark>
      <name>chip_103_320</name>
      <Point>
        <coordinates>-98.579737,45.257253,0</coordinates>
      </Point>
    </Placemark>
    <Placemark>
      <name>chip_104_333</name>
      <Point>
        <coordinates>-97.464835,45.213557,0</coordinates>
      </Point>
    </Placemark>
    <Placemark>
      <name>chip_104_334</name>
      <Point>
        <coordinates>-97.379231,45.214461,0</coordinates>
      </Point>
    </Placemark>
    <Placemark>
      <name>chip_105_103</name>
      <Point>
        <coordinates>-116.800476,43.523749,0</coordinates>
      </Point>
    </Placemark>
    <Placemark>
      <name>chip_105_104</name>
      <Point>
        <coordinates>-116.718948,43.536797,0</coordinates>
      </Point>
    </Placemark>
    <Placemark>
      <name>chip_105_319</name>
      <Point>
        <coordinates>-98.660576,45.134799,0</coordinates>
      </Point>
    </Placemark>
    <Placemark>
      <name>chip_105_427</name>
      <Point>
        <coordinates>-89.432817,45.000575,0</coordinates>
      </Point>
    </Placemark>
    <Placemark>
      <name>chip_105_452</name>
      <Point>
        <coordinates>-87.308021,44.879508,0</coordinates>
      </Point>
    </Placemark>
    <Placemark>
      <name>chip_106_107</name>
      <Point>
        <coordinates>-116.456328,43.516821,0</coordinates>
      </Point>
    </Placemark>
    <Placemark>
      <name>chip_106_288</name>
      <Point>
        <coordinates>-101.302896,44.996014,0</coordinates>
      </Point>
    </Placemark>
    <Placemark>
      <name>chip_106_409</name>
      <Point>
        <coordinates>-90.971394,45.006574,0</coordinates>
      </Point>
    </Placemark>
    <Placemark>
      <name>chip_106_413</name>
      <Point>
        <coordinates>-90.630541,44.993366,0</coordinates>
      </Point>
    </Placemark>
    <Placemark>
      <name>chip_107_105</name>
      <Point>
        <coordinates>-116.601453,43.432210,0</coordinates>
      </Point>
    </Placemark>
    <Placemark>
      <name>chip_107_106</name>
      <Point>
        <coordinates>-116.519997,43.445133,0</coordinates>
      </Point>
    </Placemark>
    <Placemark>
      <name>chip_107_334</name>
      <Point>
        <coordinates>-97.375514,45.033259,0</coordinates>
      </Point>
    </Placemark>
    <Placemark>
      <name>chip_107_410</name>
      <Point>
        <coordinates>-90.890754,44.943055,0</coordinates>
      </Point>
    </Placemark>
    <Placemark>
      <name>chip_108_401</name>
      <Point>
        <coordinates>-91.661271,44.909752,0</coordinates>
      </Point>
    </Placemark>
    <Placemark>
      <name>chip_108_405</name>
      <Point>
        <coordinates>-91.320778,44.898298,0</coordinates>
      </Point>
    </Placemark>
    <Placemark>
      <name>chip_108_438</name>
      <Point>
        <coordinates>-88.517094,44.770900,0</coordinates>
      </Point>
    </Placemark>
    <Placemark>
      <name>chip_109_334</name>
      <Point>
        <coordinates>-97.373047,44.912501,0</coordinates>
      </Point>
    </Placemark>
    <Placemark>
      <name>chip_109_416</name>
      <Point>
        <coordinates>-90.390093,44.802086,0</coordinates>
      </Point>
    </Placemark>
    <Placemark>
      <name>chip_109_424</name>
      <Point>
        <coordinates>-89.710856,44.771875,0</coordinates>
      </Point>
    </Placemark>
    <Placemark>
      <name>chip_110_340</name>
      <Point>
        <coordinates>-96.860914,44.856389,0</coordinates>
      </Point>
    </Placemark>
    <Placemark>
      <name>chip_110_429</name>
      <Point>
        <coordinates>-89.292650,44.691046,0</coordinates>
      </Point>
    </Placemark>
    <Placemark>
      <name>chip_111_421</name>
      <Point>
        <coordinates>-89.976275,44.663149,0</coordinates>
      </Point>
    </Placemark>
    <Placemark>
      <name>chip_111_595</name>
      <Point>
        <coordinates>-75.487807,43.199902,0</coordinates>
      </Point>
    </Placemark>
    <Placemark>
      <name>chip_113_329</name>
      <Point>
        <coordinates>-97.792691,44.666067,0</coordinates>
      </Point>
    </Placemark>
    <Placemark>
      <name>chip_113_420</name>
      <Point>
        <coordinates>-90.071612,44.546508,0</coordinates>
      </Point>
    </Placemark>
    <Placemark>
      <name>chip_114_441</name>
      <Point>
        <coordinates>-88.304057,44.395619,0</coordinates>
      </Point>
    </Placemark>
    <Placemark>
      <name>chip_114_505</name>
      <Point>
        <coordinates>-82.939127,43.974955,0</coordinates>
      </Point>
    </Placemark>
    <Placemark>
      <name>chip_115_438</name>
      <Point>
        <coordinates>-88.563633,44.349893,0</coordinates>
      </Point>
    </Placemark>
    <Placemark>
      <name>chip_115_478</name>
      <Point>
        <coordinates>-85.203806,44.118880,0</coordinates>
      </Point>
    </Placemark>
    <Placemark>
      <name>chip_116_208</name>
      <Point>
        <coordinates>-107.973874,43.956634,0</coordinates>
      </Point>
    </Placemark>
    <Placemark>
      <name>chip_116_346</name>
      <Point>
        <coordinates>-96.348091,44.496629,0</coordinates>
      </Point>
    </Placemark>
    <Placemark>
      <name>chip_116_447</name>
      <Point>
        <coordinates>-87.813012,44.245243,0</coordinates>
      </Point>
    </Placemark>
    <Placemark>
      <name>chip_116_448</name>
      <Point>
        <coordinates>-87.728938,44.240029,0</coordinates>
      </Point>
    </Placemark>
    <Placemark>
      <name>chip_117_438</name>
      <Point>
        <coordinates>-88.576824,44.229671,0</coordinates>
      </Point>
    </Placemark>
    <Placemark>
      <name>chip_118_448</name>
      <Point>
        <coordinates>-87.743583,44.119922,0</coordinates>
      </Point>
    </Placemark>
    <Placemark>
      <name>chip_119_126</name>
      <Point>
        <coordinates>-114.688292,42.984823,0</coordinates>
      </Point>
    </Placemark>
    <Placemark>
      <name>chip_119_323</name>
      <Point>
        <coordinates>-98.289783,44.296460,0</coordinates>
      </Point>
    </Placemark>
    <Placemark>
      <name>chip_119_505</name>
      <Point>
        <coordinates>-82.996456,43.676582,0</coordinates>
      </Point>
    </Placemark>
    <Placemark>
      <name>chip_120_559</name>
      <Point>
        <coordinates>-78.566616,43.098702,0</coordinates>
      </Point>
    </Placemark>
    <Placemark>
      <name>chip_121_466</name>
      <Point>
        <coordinates>-86.261060,43.837410,0</coordinates>
      </Point>
    </Placemark>
    <Placemark>
      <name>chip_122_507</name>
      <Point>
        <coordinates>-82.865261,43.481138,0</coordinates>
      </Point>
    </Placemark>
    <Placemark>
      <name>chip_123_393</name>
      <Point>
        <coordinates>-92.391133,44.025935,0</coordinates>
      </Point>
    </Placemark>
    <Placemark>
      <name>chip_123_434</name>
      <Point>
        <coordinates>-88.950906,43.887454,0</coordinates>
      </Point>
    </Placemark>
    <Placemark>
      <name>chip_123_448</name>
      <Point>
        <coordinates>-87.779968,43.819770,0</coordinates>
      </Point>
    </Placemark>
    <Placemark>
      <name>chip_123_507</name>
      <Point>
        <coordinates>-82.876748,43.421512,0</coordinates>
      </Point>
    </Placemark>
    <Placemark>
      <name>chip_123_560</name>
      <Point>
        <coordinates>-78.530534,42.910284,0</coordinates>
      </Point>
    </Placemark>
    <Placemark>
      <name>chip_124_123</name>
      <Point>
        <coordinates>-114.850343,42.654571,0</coordinates>
      </Point>
    </Placemark>
    <Placemark>
      <name>chip_124_433</name>
      <Point>
        <coordinates>-89.040774,43.831809,0</coordinates>
      </Point>
    </Placemark>
    <Placemark>
      <name>chip_124_441</name>
      <Point>
        <coordinates>-88.371875,43.794860,0</coordinates>
      </Point>
    </Placemark>
    <Placemark>
      <name>chip_124_479</name>
      <Point>
        <coordinates>-85.206036,43.573361,0</coordinates>
      </Point>
    </Placemark>
    <Placemark>
      <name>chip_125_124</name>
      <Point>
        <coordinates>-114.753319,42.607439,0</coordinates>
      </Point>
    </Placemark>
    <Placemark>
      <name>chip_125_433</name>
      <Point>
        <coordinates>-89.046905,43.771733,0</coordinates>
      </Point>
    </Placemark>
    <Placemark>
      <name>chip_125_436</name>
      <Point>
        <coordinates>-88.796203,43.758286,0</coordinates>
      </Point>
    </Placemark>
    <Placemark>
      <name>chip_125_445</name>
      <Point>
        <coordinates>-88.044713,43.715098,0</coordinates>
      </Point>
    </Placemark>
    <Placemark>
      <name>chip_125_503</name>
      <Point>
        <coordinates>-83.229605,43.334943,0</coordinates>
      </Point>
    </Placemark>
    <Placemark>
      <name>chip_126_124</name>
      <Point>
        <coordinates>-114.737178,42.548486,0</coordinates>
      </Point>
    </Placemark>
    <Placemark>
      <name>chip_126_357</name>
      <Point>
        <coordinates>-95.421480,43.892982,0</coordinates>
      </Point>
    </Placemark>
    <Placemark>
      <name>chip_127_445</name>
      <Point>
        <coordinates>-88.058692,43.595076,0</coordinates>
      </Point>
    </Placemark>
    <Placemark>
      <name>chip_128_478</name>
      <Point>
        <coordinates>-85.326538,43.340879,0</coordinates>
      </Point>
    </Placemark>
    <Placemark>
      <name>chip_128_506</name>
      <Point>
        <coordinates>-83.016134,43.131677,0</coordinates>
      </Point>
    </Placemark>
    <Placemark>
      <name>chip_129_311</name>
      <Point>
        <coordinates>-99.273590,43.672960,0</coordinates>
      </Point>
    </Placemark>
    <Placemark>
      <name>chip_130_159</name>
      <Point>
        <coordinates>-111.840411,42.692692,0</coordinates>
      </Point>
    </Placemark>
    <Placemark>
      <name>chip_130_445</name>
      <Point>
        <coordinates>-88.079568,43.415089,0</coordinates>
      </Point>
    </Placemark>
    <Placemark>
      <name>chip_131_404</name>
      <Point>
        <coordinates>-91.498691,43.516230,0</coordinates>
      </Point>
    </Placemark>
    <Placemark>
      <name>chip_131_429</name>
      <Point>
        <coordinates>-89.416143,43.428496,0</coordinates>
      </Point>
    </Placemark>
    <Placemark>
      <name>chip_131_445</name>
      <Point>
        <coordinates>-88.086503,43.355105,0</coordinates>
      </Point>
    </Placemark>
    <Placemark>
      <name>chip_131_472</name>
      <Point>
        <coordinates>-85.850022,43.200898,0</coordinates>
      </Point>
    </Placemark>
    <Placemark>
      <name>chip_131_477</name>
      <Point>
        <coordinates>-85.437020,43.168175,0</coordinates>
      </Point>
    </Placemark>
    <Placemark>
      <name>chip_133_303</name>
      <Point>
        <coordinates>-99.928684,43.414046,0</coordinates>
      </Point>
    </Placemark>
    <Placemark>
      <name>chip_133_340</name>
      <Point>
        <coordinates>-96.843529,43.469972,0</coordinates>
      </Point>
    </Placemark>
    <Placemark>
      <name>chip_133_473</name>
      <Point>
        <coordinates>-85.785221,43.074817,0</coordinates>
      </Point>
    </Placemark>
    <Placemark>
      <name>chip_134_316</name>
      <Point>
        <coordinates>-98.842826,43.381762,0</coordinates>
      </Point>
    </Placemark>
    <Placemark>
      <name>chip_134_364</name>
      <Point>
        <coordinates>-94.842006,43.407380,0</coordinates>
      </Point>
    </Placemark>
    <Placemark>
      <name>chip_135_434</name>
      <Point>
        <coordinates>-89.024781,43.166922,0</coordinates>
      </Point>
    </Placemark>
    <Placemark>
      <name>chip_135_472</name>
      <Point>
        <coordinates>-85.885339,42.961612,0</coordinates>
      </Point>
    </Placemark>
    <Placemark>
      <name>chip_135_494</name>
      <Point>
        <coordinates>-84.077403,42.808532,0</coordinates>
      </Point>
    </Placemark>
    <Placemark>
      <name>chip_136_276</name>
      <Point>
        <coordinates>-102.158987,43.147533,0</coordinates>
      </Point>
    </Placemark>
    <Placemark>
      <name>chip_136_435</name>
      <Point>
        <coordinates>-88.948096,43.102481,0</coordinates>
      </Point>
    </Placemark>
    <Placemark>
      <name>chip_136_471</name>
      <Point>
        <coordinates>-85.976423,42.908161,0</coordinates>
      </Point>
    </Placemark>
    <Placemark>
      <name>chip_136_485</name>
      <Point>
        <coordinates>-84.825744,42.814447,0</coordinates>
      </Point>
    </Placemark>
    <Placemark>
      <name>chip_136_495</name>
      <Point>
        <coordinates>-84.005822,42.741325,0</coordinates>
      </Point>
    </Placemark>
    <Placemark>
      <name>chip_137_275</name>
      <Point>
        <coordinates>-102.236411,43.083573,0</coordinates>
      </Point>
    </Placemark>
    <Placemark>
      <name>chip_137_437</name>
      <Point>
        <coordinates>-88.788877,43.033468,0</coordinates>
      </Point>
    </Placemark>
    <Placemark>
      <name>chip_138_426</name>
      <Point>
        <coordinates>-89.704402,43.020447,0</coordinates>
      </Point>
    </Placemark>
    <Placemark>
      <name>chip_138_474</name>
      <Point>
        <coordinates>-85.747406,42.769352,0</coordinates>
      </Point>
    </Placemark>
    <Placemark>
      <name>chip_138_494</name>
      <Point>
        <coordinates>-84.108346,42.629555,0</coordinates>
      </Point>
    </Placemark>
    <Placemark>
      <name>chip_138_495</name>
      <Point>
        <coordinates>-84.026571,42.622026,0</coordinates>
      </Point>
    </Placemark>
    <Placemark>
      <name>chip_139_390</name>
      <Point>
        <coordinates>-92.690209,43.069774,0</coordinates>
      </Point>
    </Placemark>
    <Placemark>
      <name>chip_139_473</name>
      <Point>
        <coordinates>-85.838344,42.716013,0</coordinates>
      </Point>
    </Placemark>
    <Placemark>
      <name>chip_139_488</name>
      <Point>
        <coordinates>-84.609225,42.613961,0</coordinates>
      </Point>
    </Placemark>
    <Placemark>
      <name>chip_139_491</name>
      <Point>
        <coordinates>-84.363847,42.592164,0</coordinates>
      </Point>
    </Placemark>
    <Placemark>
      <name>chip_140_470</name>
      <Point>
        <coordinates>-86.093182,42.675230,0</coordinates>
      </Point>
    </Placemark>
    <Placemark>
      <name>chip_141_475</name>
      <Point>
        <coordinates>-85.692121,42.583536,0</coordinates>
      </Point>
    </Placemark>
    <Placemark>
      <name>chip_141_484</name>
      <Point>
        <coordinates>-84.955752,42.522882,0</coordinates>
      </Point>
    </Placemark>
    <Placemark>
      <name>chip_141_491</name>
      <Point>
        <coordinates>-84.383937,42.472833,0</coordinates>
      </Point>
    </Placemark>
    <Placemark>
      <name>chip_141_493</name>
      <Point>
        <coordinates>-84.220714,42.458073,0</coordinates>
      </Point>
    </Placemark>
    <Placemark>
      <name>chip_142_427</name>
      <Point>
        <coordinates>-89.643853,42.776395,0</coordinates>
      </Point>
    </Placemark>
    <Placemark>
      <name>chip_142_497</name>
      <Point>
        <coordinates>-83.904911,42.368322,0</coordinates>
      </Point>
    </Placemark>
    <Placemark>
      <name>chip_142_498</name>
      <Point>
        <coordinates>-83.823466,42.360668,0</coordinates>
      </Point>
    </Placemark>
    <Placemark>
      <name>chip_143_489</name>
      <Point>
        <coordinates>-84.566973,42.368048,0</coordinates>
      </Point>
    </Placemark>
    <Placemark>
      <name>chip_144_472</name>
      <Point>
        <coordinates>-85.963914,42.423497,0</coordinates>
      </Point>
    </Placemark>
    <Placemark>
      <name>chip_144_474</name>
      <Point>
        <coordinates>-85.800492,42.410723,0</coordinates>
      </Point>
    </Placemark>
    <Placemark>
      <name>chip_144_496</name>
      <Point>
        <coordinates>-84.007048,42.256688,0</coordinates>
      </Point>
    </Placemark>
    <Placemark>
      <name>chip_145_156</name>
      <Point>
        <coordinates>-111.878658,41.773895,0</coordinates>
      </Point>
    </Placemark>
    <Placemark>
      <name>chip_145_372</name>
      <Point>
        <coordinates>-94.192655,42.738159,0</coordinates>
      </Point>
    </Placemark>
    <Placemark>
      <name>chip_145_469</name>
      <Point>
        <coordinates>-86.217605,42.382487,0</coordinates>
      </Point>
    </Placemark>
    <Placemark>
      <name>chip_146_340</name>
      <Point>
        <coordinates>-96.834010,42.687878,0</coordinates>
      </Point>
    </Placemark>
    <Placemark>
      <name>chip_146_489</name>
      <Point>
        <coordinates>-84.596463,42.189064,0</coordinates>
      </Point>
    </Placemark>
    <Placemark>
      <name>chip_146_494</name>
      <Point>
        <coordinates>-84.190083,42.152463,0</coordinates>
      </Point>
    </Placemark>
    <Placemark>
      <name>chip_146_495</name>
      <Point>
        <coordinates>-84.108858,42.144990,0</coordinates>
      </Point>
    </Placemark>
    <Placemark>
      <name>chip_147_393</name>
      <Point>
        <coordinates>-92.466188,42.582472,0</coordinates>
      </Point>
    </Placemark>
    <Placemark>
      <name>chip_147_440</name>
      <Point>
        <coordinates>-88.605345,42.420081,0</coordinates>
      </Point>
    </Placemark>
    <Placemark>
      <name>chip_147_479</name>
      <Point>
        <coordinates>-85.419578,42.198724,0</coordinates>
      </Point>
    </Placemark>
    <Placemark>
      <name>chip_147_486</name>
      <Point>
        <coordinates>-84.850085,42.150740,0</coordinates>
      </Point>
    </Placemark>
    <Placemark>
      <name>chip_147_489</name>
      <Point>
        <coordinates>-84.606260,42.129411,0</coordinates>
      </Point>
    </Placemark>
    <Placemark>
      <name>chip_148_413</name>
      <Point>
        <coordinates>-90.825586,42.467352,0</coordinates>
      </Point>
    </Placemark>
    <Placemark>
      <name>chip_148_469</name>
      <Point>
        <coordinates>-86.242860,42.203152,0</coordinates>
      </Point>
    </Placemark>
    <Placemark>
      <name>chip_148_478</name>
      <Point>
        <coordinates>-85.510023,42.145654,0</coordinates>
      </Point>
    </Placemark>
    <Placemark>
      <name>chip_148_483</name>
      <Point>
        <coordinates>-85.103426,42.111922,0</coordinates>
      </Point>
    </Placemark>
    <Placemark>
      <name>chip_151_240</name>
      <Point>
        <coordinates>-105.017687,42.075812,0</coordinates>
      </Point>
    </Placemark>
    <Placemark>
      <name>chip_151_248</name>
      <Point>
        <coordinates>-104.366018,42.119711,0</coordinates>
      </Point>
    </Placemark>
    <Placemark>
      <name>chip_151_418</name>
      <Point>
        <coordinates>-90.429565,42.270357,0</coordinates>
      </Point>
    </Placemark>
    <Placemark>
      <name>chip_151_484</name>
      <Point>
        <coordinates>-85.050370,41.925996,0</coordinates>
      </Point>
    </Placemark>
    <Placemark>
      <name>chip_151_489</name>
      <Point>
        <coordinates>-84.645279,41.890832,0</coordinates>
      </Point>
    </Placemark>
    <Placemark>
      <name>chip_151_501</name>
      <Point>
        <coordinates>-83.674779,41.801265,0</coordinates>
      </Point>
    </Placemark>
    <Placemark>
      <name>chip_151_592</name>
      <Point>
        <coordinates>-76.412260,40.887642,0</coordinates>
      </Point>
    </Placemark>
    <Placemark>
      <name>chip_151_604</name>
      <Point>
        <coordinates>-75.469806,40.736780,0</coordinates>
      </Point>
    </Placemark>
    <Placemark>
      <name>chip_152_240</name>
      <Point>
        <coordinates>-105.009946,42.016005,0</coordinates>
      </Point>
    </Placemark>
    <Placemark>
      <name>chip_152_404</name>
      <Point>
        <coordinates>-91.580208,42.254546,0</coordinates>
      </Point>
    </Placemark>
    <Placemark>
      <name>chip_152_433</name>
      <Point>
        <coordinates>-89.208479,42.151810,0</coordinates>
      </Point>
    </Placemark>
    <Placemark>
      <name>chip_152_478</name>
      <Point>
        <coordinates>-85.545968,41.906808,0</coordinates>
      </Point>
    </Placemark>
    <Placemark>
      <name>chip_152_479</name>
      <Point>
        <coordinates>-85.464892,41.900189,0</coordinates>
      </Point>
    </Placemark>
    <Placemark>
      <name>chip_152_490</name>
      <Point>
        <coordinates>-84.574092,41.824017,0</coordinates>
      </Point>
    </Placemark>
    <Placemark>
      <name>chip_153_469</name>
      <Point>
        <coordinates>-86.284663,41.904339,0</coordinates>
      </Point>
    </Placemark>
    <Placemark>
      <name>chip_154_346</name>
      <Point>
        <coordinates>-96.336687,42.209245,0</coordinates>
      </Point>
    </Placemark>
    <Placemark>
      <name>chip_154_484</name>
      <Point>
        <coordinates>-85.078441,41.747000,0</coordinates>
      </Point>
    </Placemark>
    <Placemark>
      <name>chip_155_408</name>
      <Point>
        <coordinates>-91.264926,42.062927,0</coordinates>
      </Point>
    </Placemark>
    <Placemark>
      <name>chip_155_474</name>
      <Point>
        <coordinates>-85.896406,41.753609,0</coordinates>
      </Point>
    </Placemark>
    <Placemark>
      <name>chip_155_475</name>
      <Point>
        <coordinates>-85.815474,41.747211,0</coordinates>
      </Point>
    </Placemark>
    <Placemark>
      <name>chip_155_479</name>
      <Point>
        <coordinates>-85.491895,41.721109,0</coordinates>
      </Point>
    </Placemark>
    <Placemark>
      <name>chip_155_483</name>
      <Point>
        <coordinates>-85.168561,41.694196,0</coordinates>
      </Point>
    </Placemark>
    <Placemark>
      <name>chip_156_008</name>
      <Point>
        <coordinates>-123.212397,39.130226,0</coordinates>
      </Point>
    </Placemark>
    <Placemark>
      <name>chip_157_480</name>
      <Point>
        <coordinates>-85.429099,41.595099,0</coordinates>
      </Point>
    </Placemark>
    <Placemark>
      <name>chip_159_403</name>
      <Point>
        <coordinates>-91.688138,41.837209,0</coordinates>
      </Point>
    </Placemark>
    <Placemark>
      <name>chip_159_406</name>
      <Point>
        <coordinates>-91.443931,41.828805,0</coordinates>
      </Point>
    </Placemark>
    <Placemark>
      <name>chip_160_591</name>
      <Point>
        <coordinates>-76.637425,40.371173,0</coordinates>
      </Point>
    </Placemark>
    <Placemark>
      <name>chip_162_370</name>
      <Point>
        <coordinates>-94.381645,41.718936,0</coordinates>
      </Point>
    </Placemark>
    <Placemark>
      <name>chip_162_406</name>
      <Point>
        <coordinates>-91.455616,41.648843,0</coordinates>
      </Point>
    </Placemark>
    <Placemark>
      <name>chip_163_371</name>
      <Point>
        <coordinates>-94.301753,41.657845,0</coordinates>
      </Point>
    </Placemark>
    <Placemark>
      <name>chip_163_519</name>
      <Point>
        <coordinates>-82.363404,40.940396,0</coordinates>
      </Point>
    </Placemark>
    <Placemark>
      <name>chip_163_537</name>
      <Point>
        <coordinates>-80.933139,40.777891,0</coordinates>
      </Point>
    </Placemark>
    <Placemark>
      <name>chip_163_593</name>
      <Point>
        <coordinates>-76.529836,40.170624,0</coordinates>
      </Point>
    </Placemark>
    <Placemark>
      <name>chip_164_475</name>
      <Point>
        <coordinates>-85.893231,41.209926,0</coordinates>
      </Point>
    </Placemark>
    <Placemark>
      <name>chip_165_403</name>
      <Point>
        <coordinates>-91.710203,41.477271,0</coordinates>
      </Point>
    </Placemark>
    <Placemark>
      <name>chip_165_520</name>
      <Point>
        <coordinates>-82.306881,40.813020,0</coordinates>
      </Point>
    </Placemark>
    <Placemark>
      <name>chip_165_524</name>
      <Point>
        <coordinates>-81.989082,40.778158,0</coordinates>
      </Point>
    </Placemark>
    <Placemark>
      <name>chip_166_411</name>
      <Point>
        <coordinates>-91.066644,41.394006,0</coordinates>
      </Point>
    </Placemark>
    <Placemark>
      <name>chip_166_524</name>
      <Point>
        <coordinates>-82.000865,40.718806,0</coordinates>
      </Point>
    </Placemark>
    <Placemark>
      <name>chip_166_587</name>
      <Point>
        <coordinates>-77.045288,40.066611,0</coordinates>
      </Point>
    </Placemark>
    <Placemark>
      <name>chip_167_340</name>
      <Point>
        <coordinates>-96.819078,41.426262,0</coordinates>
      </Point>
    </Placemark>
    <Placemark>
      <name>chip_167_411</name>
      <Point>
        <coordinates>-91.070843,41.334054,0</coordinates>
      </Point>
    </Placemark>
    <Placemark>
      <name>chip_167_437</name>
      <Point>
        <coordinates>-88.972639,41.235930,0</coordinates>
      </Point>
    </Placemark>
    <Placemark>
      <name>chip_169_398</name>
      <Point>
        <coordinates>-92.128474,41.250244,0</coordinates>
      </Point>
    </Placemark>
    <Placemark>
      <name>chip_169_407</name>
      <Point>
        <coordinates>-91.401950,41.226178,0</coordinates>
      </Point>
    </Placemark>
    <Placemark>
      <name>chip_170_579</name>
      <Point>
        <coordinates>-77.730208,39.924666,0</coordinates>
      </Point>
    </Placemark>
    <Placemark>
      <name>chip_171_346</name>
      <Point>
        <coordinates>-96.331824,41.188326,0</coordinates>
      </Point>
    </Placemark>
    <Placemark>
      <name>chip_171_431</name>
      <Point>
        <coordinates>-89.478476,41.022107,0</coordinates>
      </Point>
    </Placemark>
    <Placemark>
      <name>chip_171_586</name>
      <Point>
        <coordinates>-77.201327,39.784477,0</coordinates>
      </Point>
    </Placemark>
    <Placemark>
      <name>chip_172_154</name>
      <Point>
        <coordinates>-111.678249,40.155947,0</coordinates>
      </Point>
    </Placemark>
    <Placemark>
      <name>chip_173_503</name>
      <Point>
        <coordinates>-83.743694,40.476315,0</coordinates>
      </Point>
    </Placemark>
    <Placemark>
      <name>chip_173_586</name>
      <Point>
        <coordinates>-77.232395,39.666876,0</coordinates>
      </Point>
    </Placemark>
    <Placemark>
      <name>chip_174_360</name>
      <Point>
        <coordinates>-95.203398,41.006211,0</coordinates>
      </Point>
    </Placemark>
    <Placemark>
      <name>chip_174_408</name>
      <Point>
        <coordinates>-91.341052,40.923523,0</coordinates>
      </Point>
    </Placemark>
    <Placemark>
      <name>chip_175_400</name>
      <Point>
        <coordinates>-91.987449,40.885471,0</coordinates>
      </Point>
    </Placemark>
    <Placemark>
      <name>chip_175_432</name>
      <Point>
        <coordinates>-89.420403,40.778507,0</coordinates>
      </Point>
    </Placemark>
    <Placemark>
      <name>chip_176_027</name>
      <Point>
        <coordinates>-121.360493,38.287760,0</coordinates>
      </Point>
    </Placemark>
    <Placemark>
      <name>chip_177_265</name>
      <Point>
        <coordinates>-102.825816,40.645193,0</coordinates>
      </Point>
    </Placemark>
    <Placemark>
      <name>chip_177_428</name>
      <Point>
        <coordinates>-89.751387,40.674963,0</coordinates>
      </Point>
    </Placemark>
    <Placemark>
      <name>chip_178_497</name>
      <Point>
        <coordinates>-84.268914,40.224070,0</coordinates>
      </Point>
    </Placemark>
    <Placemark>
      <name>chip_179_506</name>
      <Point>
        <coordinates>-83.568483,40.096132,0</coordinates>
      </Point>
    </Placemark>
    <Placemark>
      <name>chip_179_579</name>
      <Point>
        <coordinates>-77.865620,39.394836,0</coordinates>
      </Point>
    </Placemark>
    <Placemark>
      <name>chip_179_603</name>
      <Point>
        <coordinates>-76.017195,39.108163,0</coordinates>
      </Point>
    </Placemark>
    <Placemark>
      <name>chip_180_284</name>
      <Point>
        <coordinates>-101.292230,40.538197,0</coordinates>
      </Point>
    </Placemark>
    <Placemark>
      <name>chip_180_460</name>
      <Point>
        <coordinates>-87.218937,40.343871,0</coordinates>
      </Point>
    </Placemark>
    <Placemark>
      <name>chip_181_264</name>
      <Point>
        <coordinates>-102.882545,40.401522,0</coordinates>
      </Point>
    </Placemark>
    <Placemark>
      <name>chip_181_353</name>
      <Point>
        <coordinates>-95.768554,40.588455,0</coordinates>
      </Point>
    </Placemark>
    <Placemark>
      <name>chip_181_413</name>
      <Point>
        <coordinates>-90.969180,40.488776,0</coordinates>
      </Point>
    </Placemark>
    <Placemark>
      <name>chip_181_605</name>
      <Point>
        <coordinates>-75.896757,38.965804,0</coordinates>
      </Point>
    </Placemark>
    <Placemark>
      <name>chip_181_606</name>
      <Point>
        <coordinates>-75.820232,38.953192,0</coordinates>
      </Point>
    </Placemark>
    <Placemark>
      <name>chip_182_579</name>
      <Point>
        <coordinates>-77.910318,39.218214,0</coordinates>
      </Point>
    </Placemark>
    <Placemark>
      <name>chip_182_606</name>
      <Point>
        <coordinates>-75.836714,38.894582,0</coordinates>
      </Point>
    </Placemark>
    <Placemark>
      <name>chip_183_237</name>
      <Point>
        <coordinates>-105.014073,40.146660,0</coordinates>
      </Point>
    </Placemark>
    <Placemark>
      <name>chip_183_520</name>
      <Point>
        <coordinates>-82.511400,39.744314,0</coordinates>
      </Point>
    </Placemark>
    <Placemark>
      <name>chip_183_606</name>
      <Point>
        <coordinates>-75.853170,38.835971,0</coordinates>
      </Point>
    </Placemark>
    <Placemark>
      <name>chip_185_305</name>
      <Point>
        <coordinates>-99.597965,40.297474,0</coordinates>
      </Point>
    </Placemark>
    <Placemark>
      <name>chip_185_368</name>
      <Point>
        <coordinates>-94.572453,40.340642,0</coordinates>
      </Point>
    </Placemark>
    <Placemark>
      <name>chip_185_399</name>
      <Point>
        <coordinates>-92.100765,40.288530,0</coordinates>
      </Point>
    </Placemark>
    <Placemark>
      <name>chip_185_408</name>
      <Point>
        <coordinates>-91.384017,40.264351,0</coordinates>
      </Point>
    </Placemark>
    <Placemark>
      <name>chip_186_265</name>
      <Point>
        <coordinates>-102.774450,40.106687,0</coordinates>
      </Point>
    </Placemark>
    <Placemark>
      <name>chip_186_488</name>
      <Point>
        <coordinates>-85.054351,39.811920,0</coordinates>
      </Point>
    </Placemark>
    <Placemark>
      <name>chip_188_404</name>
      <Point>
        <coordinates>-91.713295,40.095840,0</coordinates>
      </Point>
    </Placemark>
    <Placemark>
      <name>chip_191_403</name>
      <Point>
        <coordinates>-91.803267,39.918770,0</coordinates>
      </Point>
    </Placemark>
    <Placemark>
      <name>chip_193_311</name>
      <Point>
        <coordinates>-99.098967,39.830630,0</coordinates>
      </Point>
    </Placemark>
    <Placemark>
      <name>chip_193_314</name>
      <Point>
        <coordinates>-98.861401,39.836271,0</coordinates>
      </Point>
    </Placemark>
    <Placemark>
      <name>chip_193_583</name>
      <Point>
        <coordinates>-77.766637,38.525159,0</coordinates>
      </Point>
    </Placemark>
    <Placemark>
      <name>chip_194_257</name>
      <Point>
        <coordinates>-103.359561,39.592597,0</coordinates>
      </Point>
    </Placemark>
    <Placemark>
      <name>chip_194_261</name>
      <Point>
        <coordinates>-103.044576,39.610757,0</coordinates>
      </Point>
    </Placemark>
    <Placemark>
      <name>chip_194_296</name>
      <Point>
        <coordinates>-100.282588,39.735778,0</coordinates>
      </Point>
    </Placemark>
    <Placemark>
      <name>chip_194_315</name>
      <Point>
        <coordinates>-98.779887,39.778107,0</coordinates>
      </Point>
    </Placemark>
    <Placemark>
      <name>chip_194_329</name>
      <Point>
        <coordinates>-97.671701,39.797770,0</coordinates>
      </Point>
    </Placemark>
    <Placemark>
      <name>chip_194_385</name>
      <Point>
        <coordinates>-93.237423,39.778490,0</coordinates>
      </Point>
    </Placemark>
    <Placemark>
      <name>chip_194_433</name>
      <Point>
        <coordinates>-89.445434,39.637416,0</coordinates>
      </Point>
    </Placemark>
    <Placemark>
      <name>chip_196_274</name>
      <Point>
        <coordinates>-102.009846,39.544609,0</coordinates>
      </Point>
    </Placemark>
    <Placemark>
      <name>chip_196_291</name>
      <Point>
        <coordinates>-100.669939,39.601860,0</coordinates>
      </Point>
    </Placemark>
    <Placemark>
      <name>chip_197_366</name>
      <Point>
        <coordinates>-94.744666,39.622707,0</coordinates>
      </Point>
    </Placemark>
    <Placemark>
      <name>chip_197_591</name>
      <Point>
        <coordinates>-77.217372,38.197056,0</coordinates>
      </Point>
    </Placemark>
    <Placemark>
      <name>chip_198_027</name>
      <Point>
        <coordinates>-120.918191,37.014496,0</coordinates>
      </Point>
    </Placemark>
    <Placemark>
      <name>chip_200_415</name>
      <Point>
        <coordinates>-90.891128,39.344499,0</coordinates>
      </Point>
    </Placemark>
    <Placemark>
      <name>chip_200_441</name>
      <Point>
        <coordinates>-88.850751,39.244020,0</coordinates>
      </Point>
    </Placemark>
    <Placemark>
      <name>chip_201_457</name>
      <Point>
        <coordinates>-87.605214,39.105891,0</coordinates>
      </Point>
    </Placemark>
    <Placemark>
      <name>chip_202_016</name>
      <Point>
        <coordinates>-121.645182,36.609560,0</coordinates>
      </Point>
    </Placemark>
    <Placemark>
      <name>chip_202_324</name>
      <Point>
        <coordinates>-98.053860,39.312270,0</coordinates>
      </Point>
    </Placemark>
    <Placemark>
      <name>chip_202_367</name>
      <Point>
        <coordinates>-94.671201,39.322107,0</coordinates>
      </Point>
    </Placemark>
    <Placemark>
      <name>chip_202_388</name>
      <Point>
        <coordinates>-93.019896,39.293562,0</coordinates>
      </Point>
    </Placemark>
    <Placemark>
      <name>chip_202_439</name>
      <Point>
        <coordinates>-89.019029,39.133342,0</coordinates>
      </Point>
    </Placemark>
    <Placemark>
      <name>chip_204_329</name>
      <Point>
        <coordinates>-97.657887,39.198228,0</coordinates>
      </Point>
    </Placemark>
    <Placemark>
      <name>chip_204_390</name>
      <Point>
        <coordinates>-92.867889,39.169851,0</coordinates>
      </Point>
    </Placemark>
    <Placemark>
      <name>chip_204_506</name>
      <Point>
        <coordinates>-83.822521,38.609622,0</coordinates>
      </Point>
    </Placemark>
    <Placemark>
      <name>chip_205_329</name>
      <Point>
        <coordinates>-97.656518,39.138280,0</coordinates>
      </Point>
    </Placemark>
    <Placemark>
      <name>chip_206_391</name>
      <Point>
        <coordinates>-92.794725,39.048005,0</coordinates>
      </Point>
    </Placemark>
    <Placemark>
      <name>chip_206_401</name>
      <Point>
        <coordinates>-92.011690,39.025318,0</coordinates>
      </Point>
    </Placemark>
    <Placemark>
      <name>chip_207_334</name>
      <Point>
        <coordinates>-97.262122,39.022983,0</coordinates>
      </Point>
    </Placemark>
    <Placemark>
      <name>chip_207_424</name>
      <Point>
        <coordinates>-90.217696,38.894579,0</coordinates>
      </Point>
    </Placemark>
    <Placemark>
      <name>chip_208_417</name>
      <Point>
        <coordinates>-90.768619,38.859030,0</coordinates>
      </Point>
    </Placemark>
    <Placemark>
      <name>chip_209_312</name>
      <Point>
        <coordinates>-98.980039,38.873659,0</coordinates>
      </Point>
    </Placemark>
    <Placemark>
      <name>chip_210_444</name>
      <Point>
        <coordinates>-88.676201,38.632517,0</coordinates>
      </Point>
    </Placemark>
    <Placemark>
      <name>chip_210_466</name>
      <Point>
        <coordinates>-86.969464,38.519160,0</coordinates>
      </Point>
    </Placemark>
    <Placemark>
      <name>chip_211_435</name>
      <Point>
        <coordinates>-89.381267,38.612271,0</coordinates>
      </Point>
    </Placemark>
    <Placemark>
      <name>chip_213_282</name>
      <Point>
        <coordinates>-101.304695,38.555672,0</coordinates>
      </Point>
    </Placemark>
    <Placemark>
      <name>chip_213_290</name>
      <Point>
        <coordinates>-100.682691,38.580863,0</coordinates>
      </Point>
    </Placemark>
    <Placemark>
      <name>chip_213_391</name>
      <Point>
        <coordinates>-92.813119,38.628559,0</coordinates>
      </Point>
    </Placemark>
    <Placemark>
      <name>chip_213_456</name>
      <Point>
        <coordinates>-87.764813,38.394427,0</coordinates>
      </Point>
    </Placemark>
    <Placemark>
      <name>chip_214_307</name>
      <Point>
        <coordinates>-99.356911,38.564062,0</coordinates>
      </Point>
    </Placemark>
    <Placemark>
      <name>chip_214_311</name>
      <Point>
        <coordinates>-99.045657,38.572139,0</coordinates>
      </Point>
    </Placemark>
    <Placemark>
      <name>chip_214_329</name>
      <Point>
        <coordinates>-97.644299,38.598765,0</coordinates>
      </Point>
    </Placemark>
    <Placemark>
      <name>chip_214_429</name>
      <Point>
        <coordinates>-89.862806,38.456938,0</coordinates>
      </Point>
    </Placemark>
    <Placemark>
      <name>chip_215_309</name>
      <Point>
        <coordinates>-99.198672,38.508279,0</coordinates>
      </Point>
    </Placemark>
    <Placemark>
      <name>chip_215_310</name>
      <Point>
        <coordinates>-99.120920,38.510272,0</coordinates>
      </Point>
    </Placemark>
    <Placemark>
      <name>chip_216_454</name>
      <Point>
        <coordinates>-87.939342,38.225494,0</coordinates>
      </Point>
    </Placemark>
    <Placemark>
      <name>chip_217_287</name>
      <Point>
        <coordinates>-100.899941,38.332289,0</coordinates>
      </Point>
    </Placemark>
    <Placemark>
      <name>chip_217_425</name>
      <Point>
        <coordinates>-90.187439,38.292500,0</coordinates>
      </Point>
    </Placemark>
    <Placemark>
      <name>chip_218_293</name>
      <Point>
        <coordinates>-100.431182,38.290061,0</coordinates>
      </Point>
    </Placemark>
    <Placemark>
      <name>chip_218_306</name>
      <Point>
        <coordinates>-99.423498,38.322261,0</coordinates>
      </Point>
    </Placemark>
    <Placemark>
      <name>chip_218_423</name>
      <Point>
        <coordinates>-90.346907,38.239884,0</coordinates>
      </Point>
    </Placemark>
    <Placemark>
      <name>chip_218_437</name>
      <Point>
        <coordinates>-89.264467,38.185212,0</coordinates>
      </Point>
    </Placemark>
    <Placemark>
      <name>chip_219_333</name>
      <Point>
        <coordinates>-97.327328,38.302783,0</coordinates>
      </Point>
    </Placemark>
    <Placemark>
      <name>chip_219_603</name>
      <Point>
        <coordinates>-76.651572,36.760897,0</coordinates>
      </Point>
    </Placemark>
    <Placemark>
      <name>chip_220_184</name>
      <Point>
        <coordinates>-108.798974,37.578315,0</coordinates>
      </Point>
    </Placemark>
    <Placemark>
      <name>chip_220_257</name>
      <Point>
        <coordinates>-103.204078,38.038304,0</coordinates>
      </Point>
    </Placemark>
    <Placemark>
      <name>chip_220_306</name>
      <Point>
        <coordinates>-99.417918,38.202431,0</coordinates>
      </Point>
    </Placemark>
    <Placemark>
      <name>chip_220_333</name>
      <Point>
        <coordinates>-97.326246,38.242835,0</coordinates>
      </Point>
    </Placemark>
    <Placemark>
      <name>chip_221_316</name>
      <Point>
        <coordinates>-98.641349,38.161617,0</coordinates>
      </Point>
    </Placemark>
    <Placemark>
      <name>chip_222_314</name>
      <Point>
        <coordinates>-98.793861,38.098258,0</coordinates>
      </Point>
    </Placemark>
    <Placemark>
      <name>chip_222_369</name>
      <Point>
        <coordinates>-94.538085,38.121372,0</coordinates>
      </Point>
    </Placemark>
    <Placemark>
      <name>chip_223_311</name>
      <Point>
        <coordinates>-99.023367,38.032827,0</coordinates>
      </Point>
    </Placemark>
    <Placemark>
      <name>chip_223_483</name>
      <Point>
        <coordinates>-85.763146,37.640574,0</coordinates>
      </Point>
    </Placemark>
    <Placemark>
      <name>chip_223_491</name>
      <Point>
        <coordinates>-85.152078,37.587469,0</coordinates>
      </Point>
    </Placemark>
    <Placemark>
      <name>chip_224_326</name>
      <Point>
        <coordinates>-97.862660,37.996007,0</coordinates>
      </Point>
    </Placemark>
    <Placemark>
      <name>chip_224_439</name>
      <Point>
        <coordinates>-89.143465,37.817828,0</coordinates>
      </Point>
    </Placemark>
    <Placemark>
      <name>chip_224_440</name>
      <Point>
        <coordinates>-89.066602,37.813482,0</coordinates>
      </Point>
    </Placemark>
    <Placemark>
      <name>chip_225_357</name>
      <Point>
        <coordinates>-95.468009,37.949061,0</coordinates>
      </Point>
    </Placemark>
    <Placemark>
      <name>chip_225_371</name>
      <Point>
        <coordinates>-94.387276,37.939589,0</coordinates>
      </Point>
    </Placemark>
    <Placemark>
      <name>chip_226_328</name>
      <Point>
        <coordinates>-97.705405,37.878366,0</coordinates>
      </Point>
    </Placemark>
    <Placemark>
      <name>chip_227_293</name>
      <Point>
        <coordinates>-100.398882,37.751041,0</coordinates>
      </Point>
    </Placemark>
    <Placemark>
      <name>chip_228_314</name>
      <Point>
        <coordinates>-98.780284,37.738673,0</coordinates>
      </Point>
    </Placemark>
    <Placemark>
      <name>chip_230_282</name>
      <Point>
        <coordinates>-101.231877,37.537983,0</coordinates>
      </Point>
    </Placemark>
    <Placemark>
      <name>chip_230_302</name>
      <Point>
        <coordinates>-99.697432,37.594304,0</coordinates>
      </Point>
    </Placemark>
    <Placemark>
      <name>chip_230_303</name>
      <Point>
        <coordinates>-99.620653,37.596612,0</coordinates>
      </Point>
    </Placemark>
    <Placemark>
      <name>chip_230_458</name>
      <Point>
        <coordinates>-87.724889,37.368585,0</coordinates>
      </Point>
    </Placemark>
    <Placemark>
      <name>chip_230_490</name>
      <Point>
        <coordinates>-85.288905,37.177200,0</coordinates>
      </Point>
    </Placemark>
    <Placemark>
      <name>chip_231_287</name>
      <Point>
        <coordinates>-100.844578,37.493992,0</coordinates>
      </Point>
    </Placemark>
    <Placemark>
      <name>chip_231_331</name>
      <Point>
        <coordinates>-97.468082,37.581616,0</coordinates>
      </Point>
    </Placemark>
    <Placemark>
      <name>chip_232_293</name>
      <Point>
        <coordinates>-100.381139,37.451556,0</coordinates>
      </Point>
    </Placemark>
    <Placemark>
      <name>chip_232_372</name>
      <Point>
        <coordinates>-94.319648,37.518900,0</coordinates>
      </Point>
    </Placemark>
    <Placemark>
      <name>chip_232_596</name>
      <Point>
        <coordinates>-77.365702,36.079875,0</coordinates>
      </Point>
    </Placemark>
    <Placemark>
      <name>chip_233_289</name>
      <Point>
        <coordinates>-100.683740,37.380225,0</coordinates>
      </Point>
    </Placemark>
    <Placemark>
      <name>chip_233_331</name>
      <Point>
        <coordinates>-97.465713,37.461706,0</coordinates>
      </Point>
    </Placemark>
    <Placemark>
      <name>chip_233_332</name>
      <Point>
        <coordinates>-97.389023,37.462607,0</coordinates>
      </Point>
    </Placemark>
    <Placemark>
      <name>chip_233_478</name>
      <Point>
        <coordinates>-86.224478,37.075749,0</coordinates>
      </Point>
    </Placemark>
    <Placemark>
      <name>chip_234_295</name>
      <Point>
        <coordinates>-100.221105,37.337176,0</coordinates>
      </Point>
    </Placemark>
    <Placemark>
      <name>chip_234_371</name>
      <Point>
        <coordinates>-94.398980,37.400027,0</coordinates>
      </Point>
    </Placemark>
    <Placemark>
      <name>chip_234_444</name>
      <Point>
        <coordinates>-88.817418,37.197710,0</coordinates>
      </Point>
    </Placemark>
    <Placemark>
      <name>chip_234_445</name>
      <Point>
        <coordinates>-88.741214,37.193158,0</coordinates>
      </Point>
    </Placemark>
    <Placemark>
      <name>chip_234_591</name>
      <Point>
        <coordinates>-77.764004,36.019951,0</coordinates>
      </Point>
    </Placemark>
    <Placemark>
      <name>chip_236_284</name>
      <Point>
        <coordinates>-101.054053,37.185205,0</coordinates>
      </Point>
    </Placemark>
    <Placemark>
      <name>chip_236_367</name>
      <Point>
        <coordinates>-94.707575,37.283761,0</coordinates>
      </Point>
    </Placemark>
    <Placemark>
      <name>chip_236_448</name>
      <Point>
        <coordinates>-88.524667,37.059644,0</coordinates>
      </Point>
    </Placemark>
    <Placemark>
      <name>chip_236_450</name>
      <Point>
        <coordinates>-88.372588,37.050123,0</coordinates>
      </Point>
    </Placemark>
    <Placemark>
      <name>chip_236_595</name>
      <Point>
        <coordinates>-77.497847,35.856051,0</coordinates>
      </Point>
    </Placemark>
    <Placemark>
      <name>chip_236_600</name>
      <Point>
        <coordinates>-77.129841,35.797425,0</coordinates>
      </Point>
    </Placemark>
    <Placemark>
      <name>chip_237_289</name>
      <Point>
        <coordinates>-100.668691,37.140646,0</coordinates>
      </Point>
    </Placemark>
    <Placemark>
      <name>chip_237_335</name>
      <Point>
        <coordinates>-97.155213,37.225174,0</coordinates>
      </Point>
    </Placemark>
    <Placemark>
      <name>chip_237_472</name>
      <Point>
        <coordinates>-86.709894,36.873092,0</coordinates>
      </Point>
    </Placemark>
    <Placemark>
      <name>chip_237_598</name>
      <Point>
        <coordinates>-77.291653,35.762154,0</coordinates>
      </Point>
    </Placemark>
    <Placemark>
      <name>chip_238_458</name>
      <Point>
        <coordinates>-87.777843,36.890626,0</coordinates>
      </Point>
    </Placemark>
    <Placemark>
      <name>chip_239_277</name>
      <Point>
        <coordinates>-101.574593,36.982107,0</coordinates>
      </Point>
    </Placemark>
    <Placemark>
      <name>chip_239_281</name>
      <Point>
        <coordinates>-101.270236,36.995788,0</coordinates>
      </Point>
    </Placemark>
    <Placemark>
      <name>chip_239_283</name>
      <Point>
        <coordinates>-101.118016,37.002341,0</coordinates>
      </Point>
    </Placemark>
    <Placemark>
      <name>chip_239_336</name>
      <Point>
        <coordinates>-97.077030,37.105947,0</coordinates>
      </Point>
    </Placemark>
    <Placemark>
      <name>chip_240_276</name>
      <Point>
        <coordinates>-101.646140,36.918698,0</coordinates>
      </Point>
    </Placemark>
    <Placemark>
      <name>chip_240_588</name>
      <Point>
        <coordinates>-78.070381,35.700409,0</coordinates>
      </Point>
    </Placemark>
    <Placemark>
      <name>chip_241_475</name>
      <Point>
        <coordinates>-86.513079,36.616589,0</coordinates>
      </Point>
    </Placemark>
    <Placemark>
      <name>chip_242_336</name>
      <Point>
        <coordinates>-97.074441,36.926039,0</coordinates>
      </Point>
    </Placemark>
    <Placemark>
      <name>chip_243_452</name>
      <Point>
        <coordinates>-88.263957,36.621959,0</coordinates>
      </Point>
    </Placemark>
    <Placemark>
      <name>chip_243_589</name>
      <Point>
        <coordinates>-78.039021,35.512259,0</coordinates>
      </Point>
    </Placemark>
    <Placemark>
      <name>chip_244_335</name>
      <Point>
        <coordinates>-97.148744,36.805390,0</coordinates>
      </Point>
    </Placemark>
    <Placemark>
      <name>chip_244_446</name>
      <Point>
        <coordinates>-88.723474,36.590559,0</coordinates>
      </Point>
    </Placemark>
    <Placemark>
      <name>chip_244_594</name>
      <Point>
        <coordinates>-77.686560,35.396371,0</coordinates>
      </Point>
    </Placemark>
    <Placemark>
      <name>chip_245_593</name>
      <Point>
        <coordinates>-77.774041,35.348908,0</coordinates>
      </Point>
    </Placemark>
    <Placemark>
      <name>chip_246_444</name>
      <Point>
        <coordinates>-88.886008,36.480001,0</coordinates>
      </Point>
    </Placemark>
    <Placemark>
      <name>chip_246_583</name>
      <Point>
        <coordinates>-78.520895,35.402051,0</coordinates>
      </Point>
    </Placemark>
    <Placemark>
      <name>chip_246_592</name>
      <Point>
        <coordinates>-77.861413,35.301379,0</coordinates>
      </Point>
    </Placemark>
    <Placemark>
      <name>chip_248_445</name>
      <Point>
        <coordinates>-88.821950,36.355849,0</coordinates>
      </Point>
    </Placemark>
    <Placemark>
      <name>chip_248_585</name>
      <Point>
        <coordinates>-78.401669,35.261969,0</coordinates>
      </Point>
    </Placemark>
    <Placemark>
      <name>chip_248_589</name>
      <Point>
        <coordinates>-78.108957,35.217381,0</coordinates>
      </Point>
    </Placemark>
    <Placemark>
      <name>chip_249_270</name>
      <Point>
        <coordinates>-102.058407,36.357707,0</coordinates>
      </Point>
    </Placemark>
    <Placemark>
      <name>chip_250_270</name>
      <Point>
        <coordinates>-102.053596,36.297833,0</coordinates>
      </Point>
    </Placemark>
    <Placemark>
      <name>chip_250_446</name>
      <Point>
        <coordinates>-88.758102,36.231652,0</coordinates>
      </Point>
    </Placemark>
    <Placemark>
      <name>chip_250_585</name>
      <Point>
        <coordinates>-78.429059,35.143921,0</coordinates>
      </Point>
    </Placemark>
    <Placemark>
      <name>chip_250_589</name>
      <Point>
        <coordinates>-78.136782,35.099396,0</coordinates>
      </Point>
    </Placemark>
    <Placemark>
      <name>chip_251_259</name>
      <Point>
        <coordinates>-102.876644,36.193108,0</coordinates>
      </Point>
    </Placemark>
    <Placemark>
      <name>chip_251_418</name>
      <Point>
        <coordinates>-90.871854,36.281043,0</coordinates>
      </Point>
    </Placemark>
    <Placemark>
      <name>chip_252_264</name>
      <Point>
        <coordinates>-102.495318,36.154344,0</coordinates>
      </Point>
    </Placemark>
    <Placemark>
      <name>chip_252_279</name>
      <Point>
        <coordinates>-101.366509,36.210478,0</coordinates>
      </Point>
    </Placemark>
    <Placemark>
      <name>chip_252_446</name>
      <Point>
        <coordinates>-88.769572,36.111996,0</coordinates>
      </Point>
    </Placemark>
    <Placemark>
      <name>chip_253_260</name>
      <Point>
        <coordinates>-102.790657,36.077722,0</coordinates>
      </Point>
    </Placemark>
    <Placemark>
      <name>chip_253_263</name>
      <Point>
        <coordinates>-102.565308,36.090361,0</coordinates>
      </Point>
    </Placemark>
    <Placemark>
      <name>chip_253_587</name>
      <Point>
        <coordinates>-78.324130,34.944686,0</coordinates>
      </Point>
    </Placemark>
    <Placemark>
      <name>chip_253_595</name>
      <Point>
        <coordinates>-77.741553,34.854374,0</coordinates>
      </Point>
    </Placemark>
    <Placemark>
      <name>chip_254_443</name>
      <Point>
        <coordinates>-89.006029,36.005779,0</coordinates>
      </Point>
    </Placemark>
    <Placemark>
      <name>chip_257_265</name>
      <Point>
        <coordinates>-102.394776,35.859055,0</coordinates>
      </Point>
    </Placemark>
    <Placemark>
      <name>chip_257_268</name>
      <Point>
        <coordinates>-102.170013,35.870949,0</coordinates>
      </Point>
    </Placemark>
    <Placemark>
      <name>chip_257_445</name>
      <Point>
        <coordinates>-88.872911,35.817327,0</coordinates>
      </Point>
    </Placemark>
    <Placemark>
      <name>chip_257_483</name>
      <Point>
        <coordinates>-86.036700,35.612491,0</coordinates>
      </Point>
    </Placemark>
    <Placemark>
      <name>chip_260_484</name>
      <Point>
        <coordinates>-85.985892,35.427090,0</coordinates>
      </Point>
    </Placemark>
    <Placemark>
      <name>chip_264_434</name>
      <Point>
        <coordinates>-89.731170,35.444679,0</coordinates>
      </Point>
    </Placemark>
    <Placemark>
      <name>chip_264_583</name>
      <Point>
        <coordinates>-78.763213,34.338775,0</coordinates>
      </Point>
    </Placemark>
    <Placemark>
      <name>chip_266_434</name>
      <Point>
        <coordinates>-89.740999,35.324861,0</coordinates>
      </Point>
    </Placemark>
    <Placemark>
      <name>chip_267_453</name>
      <Point>
        <coordinates>-88.335012,35.181467,0</coordinates>
      </Point>
    </Placemark>
    <Placemark>
      <name>chip_267_566</name>
      <Point>
        <coordinates>-80.033881,34.338794,0</coordinates>
      </Point>
    </Placemark>
    <Placemark>
      <name>chip_268_269</name>
      <Point>
        <coordinates>-102.042588,35.215822,0</coordinates>
      </Point>
    </Placemark>
    <Placemark>
      <name>chip_268_410</name>
      <Point>
        <coordinates>-91.535457,35.286224,0</coordinates>
      </Point>
    </Placemark>
    <Placemark>
      <name>chip_269_420</name>
      <Point>
        <coordinates>-90.795471,35.195719,0</coordinates>
      </Point>
    </Placemark>
    <Placemark>
      <name>chip_270_408</name>
      <Point>
        <coordinates>-91.691094,35.171797,0</coordinates>
      </Point>
    </Placemark>
    <Placemark>
      <name>chip_270_475</name>
      <Point>
        <coordinates>-86.727325,34.884401,0</coordinates>
      </Point>
    </Placemark>
    <Placemark>
      <name>chip_270_477</name>
      <Point>
        <coordinates>-86.579796,34.872604,0</coordinates>
      </Point>
    </Placemark>
    <Placemark>
      <name>chip_271_267</name>
      <Point>
        <coordinates>-102.176666,35.028316,0</coordinates>
      </Point>
    </Placemark>
    <Placemark>
      <name>chip_272_450</name>
      <Point>
        <coordinates>-88.586577,34.896394,0</coordinates>
      </Point>
    </Placemark>
    <Placemark>
      <name>chip_273_474</name>
      <Point>
        <coordinates>-86.822551,34.710850,0</coordinates>
      </Point>
    </Placemark>
    <Placemark>
      <name>chip_274_465</name>
      <Point>
        <coordinates>-87.492161,34.701270,0</coordinates>
      </Point>
    </Placemark>
    <Placemark>
      <name>chip_275_405</name>
      <Point>
        <coordinates>-91.930037,34.879730,0</coordinates>
      </Point>
    </Placemark>
    <Placemark>
      <name>chip_276_083</name>
      <Point>
        <coordinates>-115.522615,33.234807,0</coordinates>
      </Point>
    </Placemark>
    <Placemark>
      <name>chip_279_265</name>
      <Point>
        <coordinates>-102.285608,34.540877,0</coordinates>
      </Point>
    </Placemark>
    <Placemark>
      <name>chip_280_308</name>
      <Point>
        <coordinates>-99.110925,34.608558,0</coordinates>
      </Point>
    </Placemark>
    <Placemark>
      <name>chip_280_560</name>
      <Point>
        <coordinates>-80.623908,33.626911,0</coordinates>
      </Point>
    </Placemark>
    <Placemark>
      <name>chip_281_270</name>
      <Point>
        <coordinates>-101.908152,34.440199,0</coordinates>
      </Point>
    </Placemark>
    <Placemark>
      <name>chip_281_402</name>
      <Point>
        <coordinates>-92.170148,34.527050,0</coordinates>
      </Point>
    </Placemark>
    <Placemark>
      <name>chip_282_263</name>
      <Point>
        <coordinates>-102.417930,34.352960,0</coordinates>
      </Point>
    </Placemark>
    <Placemark>
      <name>chip_282_562</name>
      <Point>
        <coordinates>-80.503648,33.488706,0</coordinates>
      </Point>
    </Placemark>
    <Placemark>
      <name>chip_283_431</name>
      <Point>
        <coordinates>-90.043613,34.317300,0</coordinates>
      </Point>
    </Placemark>
    <Placemark>
      <name>chip_284_263</name>
      <Point>
        <coordinates>-102.408009,34.233017,0</coordinates>
      </Point>
    </Placemark>
    <Placemark>
      <name>chip_285_307</name>
      <Point>
        <coordinates>-99.172422,34.306252,0</coordinates>
      </Point>
    </Placemark>
    <Placemark>
      <name>chip_291_134</name>
      <Point>
        <coordinates>-111.691633,32.912734,0</coordinates>
      </Point>
    </Placemark>
    <Placemark>
      <name>chip_292_552</name>
      <Point>
        <coordinates>-81.335018,32.989456,0</coordinates>
      </Point>
    </Placemark>
    <Placemark>
      <name>chip_296_540</name>
      <Point>
        <coordinates>-82.235914,32.858948,0</coordinates>
      </Point>
    </Placemark>
    <Placemark>
      <name>chip_298_351</name>
      <Point>
        <coordinates>-95.935088,33.567753,0</coordinates>
      </Point>
    </Placemark>
    <Placemark>
      <name>chip_299_453</name>
      <Point>
        <coordinates>-88.522195,33.263869,0</coordinates>
      </Point>
    </Placemark>
    <Placemark>
      <name>chip_302_301</name>
      <Point>
        <coordinates>-99.566638,33.271602,0</coordinates>
      </Point>
    </Placemark>
    <Placemark>
      <name>chip_308_293</name>
      <Point>
        <coordinates>-100.128051,32.891162,0</coordinates>
      </Point>
    </Placemark>
    <Placemark>
      <name>chip_308_517</name>
      <Point>
        <coordinates>-83.993307,32.329855,0</coordinates>
      </Point>
    </Placemark>
    <Placemark>
      <name>chip_310_469</name>
      <Point>
        <coordinates>-87.437110,32.522523,0</coordinates>
      </Point>
    </Placemark>
    <Placemark>
      <name>chip_311_380</name>
      <Point>
        <coordinates>-93.843344,32.764762,0</coordinates>
      </Point>
    </Placemark>
    <Placemark>
      <name>chip_311_469</name>
      <Point>
        <coordinates>-87.443577,32.462505,0</coordinates>
      </Point>
    </Placemark>
    <Placemark>
      <name>chip_312_433</name>
      <Point>
        <coordinates>-90.030685,32.568062,0</coordinates>
      </Point>
    </Placemark>
    <Placemark>
      <name>chip_313_236</name>
      <Point>
        <coordinates>-104.201675,32.367807,0</coordinates>
      </Point>
    </Placemark>
    <Placemark>
      <name>chip_314_342</name>
      <Point>
        <coordinates>-96.583867,32.602964,0</coordinates>
      </Point>
    </Placemark>
    <Placemark>
      <name>chip_314_519</name>
      <Point>
        <coordinates>-83.905605,31.955719,0</coordinates>
      </Point>
    </Placemark>
    <Placemark>
      <name>chip_315_516</name>
      <Point>
        <coordinates>-84.127088,31.918636,0</coordinates>
      </Point>
    </Placemark>
    <Placemark>
      <name>chip_316_543</name>
      <Point>
        <coordinates>-82.230080,31.639708,0</coordinates>
      </Point>
    </Placemark>
    <Placemark>
      <name>chip_317_528</name>
      <Point>
        <coordinates>-83.297129,31.705620,0</coordinates>
      </Point>
    </Placemark>
    <Placemark>
      <name>chip_317_529</name>
      <Point>
        <coordinates>-83.226575,31.697556,0</coordinates>
      </Point>
    </Placemark>
    <Placemark>
      <name>chip_317_545</name>
      <Point>
        <coordinates>-82.099692,31.562478,0</coordinates>
      </Point>
    </Placemark>
    <Placemark>
      <name>chip_318_344</name>
      <Point>
        <coordinates>-96.438543,32.362561,0</coordinates>
      </Point>
    </Placemark>
    <Placemark>
      <name>chip_318_539</name>
      <Point>
        <coordinates>-82.531874,31.554711,0</coordinates>
      </Point>
    </Placemark>
    <Placemark>
      <name>chip_319_529</name>
      <Point>
        <coordinates>-83.245626,31.577937,0</coordinates>
      </Point>
    </Placemark>
    <Placemark>
      <name>chip_320_544</name>
      <Point>
        <coordinates>-82.200863,31.392051,0</coordinates>
      </Point>
    </Placemark>
    <Placemark>
      <name>chip_321_314</name>
      <Point>
        <coordinates>-98.585519,32.152938,0</coordinates>
      </Point>
    </Placemark>
    <Placemark>
      <name>chip_322_417</name>
      <Point>
        <coordinates>-91.216936,32.020725,0</coordinates>
      </Point>
    </Placemark>
    <Placemark>
      <name>chip_322_533</name>
      <Point>
        <coordinates>-82.993048,31.365852,0</coordinates>
      </Point>
    </Placemark>
    <Placemark>
      <name>chip_322_543</name>
      <Point>
        <coordinates>-82.291436,31.281248,0</coordinates>
      </Point>
    </Placemark>
    <Placemark>
      <name>chip_324_316</name>
      <Point>
        <coordinates>-98.436872,31.975268,0</coordinates>
      </Point>
    </Placemark>
    <Placemark>
      <name>chip_325_314</name>
      <Point>
        <coordinates>-98.577753,31.911787,0</coordinates>
      </Point>
    </Placemark>
    <Placemark>
      <name>chip_325_316</name>
      <Point>
        <coordinates>-98.435042,31.914969,0</coordinates>
      </Point>
    </Placemark>
    <Placemark>
      <name>chip_326_499</name>
      <Point>
        <coordinates>-85.420391,31.380298,0</coordinates>
      </Point>
    </Placemark>
    <Placemark>
      <name>chip_327_511</name>
      <Point>
        <coordinates>-84.584095,31.236632,0</coordinates>
      </Point>
    </Placemark>
    <Placemark>
      <name>chip_327_516</name>
      <Point>
        <coordinates>-84.232884,31.199886,0</coordinates>
      </Point>
    </Placemark>
    <Placemark>
      <name>chip_329_493</name>
      <Point>
        <coordinates>-85.866075,31.239611,0</coordinates>
      </Point>
    </Placemark>
    <Placemark>
      <name>chip_329_512</name>
      <Point>
        <coordinates>-84.530869,31.109437,0</coordinates>
      </Point>
    </Placemark>
    <Placemark>
      <name>chip_330_499</name>
      <Point>
        <coordinates>-85.451809,31.140203,0</coordinates>
      </Point>
    </Placemark>
    <Placemark>
      <name>chip_331_495</name>
      <Point>
        <coordinates>-85.740580,31.106554,0</coordinates>
      </Point>
    </Placemark>
    <Placemark>
      <name>chip_332_499</name>
      <Point>
        <coordinates>-85.467448,31.020110,0</coordinates>
      </Point>
    </Placemark>
    <Placemark>
      <name>chip_333_509</name>
      <Point>
        <coordinates>-84.774725,30.891042,0</coordinates>
      </Point>
    </Placemark>
    <Placemark>
      <name>chip_333_515</name>
      <Point>
        <coordinates>-84.354993,30.847509,0</coordinates>
      </Point>
    </Placemark>
    <Placemark>
      <name>chip_341_499</name>
      <Point>
        <coordinates>-85.537257,30.479300,0</coordinates>
      </Point>
    </Placemark>
    <Placemark>
      <name>chip_341_534</name>
      <Point>
        <coordinates>-83.105021,30.219667,0</coordinates>
      </Point>
    </Placemark>
    <Placemark>
      <name>chip_351_393</name>
      <Point>
        <coordinates>-92.997084,30.329659,0</coordinates>
      </Point>
    </Placemark>
    <Placemark>
      <name>chip_351_539</name>
      <Point>
        <coordinates>-82.855206,29.578280,0</coordinates>
      </Point>
    </Placemark>
    <Placemark>
      <name>chip_354_327</name>
      <Point>
        <coordinates>-97.614778,30.177226,0</coordinates>
      </Point>
    </Placemark>
    <Placemark>
      <name>chip_357_370</name>
      <Point>
        <coordinates>-94.613158,29.998693,0</coordinates>
      </Point>
    </Placemark>
    <Placemark>
      <name>chip_363_321</name>
      <Point>
        <coordinates>-98.020547,29.625246,0</coordinates>
      </Point>
    </Placemark>
    <Placemark>
      <name>chip_365_309</name>
      <Point>
        <coordinates>-98.848907,29.485415,0</coordinates>
      </Point>
    </Placemark>
    <Placemark>
      <name>chip_366_348</name>
      <Point>
        <coordinates>-96.146118,29.462049,0</coordinates>
      </Point>
    </Placemark>
    <Placemark>
      <name>chip_366_355</name>
      <Point>
        <coordinates>-95.661223,29.461619,0</coordinates>
      </Point>
    </Placemark>
    <Placemark>
      <name>chip_370_342</name>
      <Point>
        <coordinates>-96.560104,29.218103,0</coordinates>
      </Point>
    </Placemark>
    <Placemark>
      <name>chip_370_343</name>
      <Point>
        <coordinates>-96.491037,29.218438,0</coordinates>
      </Point>
    </Placemark>
    <Placemark>
      <name>chip_370_348</name>
      <Point>
        <coordinates>-96.145693,29.219454,0</coordinates>
      </Point>
    </Placemark>
    <Placemark>
      <name>chip_373_294</name>
      <Point>
        <coordinates>-99.864884,28.968250,0</coordinates>
      </Point>
    </Placemark>
    <Placemark>
      <name>chip_377_349</name>
      <Point>
        <coordinates>-96.076236,28.794640,0</coordinates>
      </Point>
    </Placemark>
    <Placemark>
      <name>chip_379_328</name>
      <Point>
        <coordinates>-97.517031,28.662469,0</coordinates>
      </Point>
    </Placemark>
    <Placemark>
      <name>chip_396_322</name>
      <Point>
        <coordinates>-97.905238,27.621903,0</coordinates>
      </Point>
    </Placemark>
    <Placemark>
      <name>chip_419_323</name>
      <Point>
        <coordinates>-97.807824,26.219429,0</coordinates>
      </Point>
    </Placemark>
    <Placemark>
      <name>chip_421_329</name>
      <Point>
        <coordinates>-97.405800,26.103295,0</coordinates>
      </Point>
    </Placemark>
  </Document>
</kml>
